OBJECT_NAME,OBJECT_ID,EPOCH,MEAN_MOTION,ECCENTRICITY,INCLINATION,RA_OF_ASC_NODE,ARG_OF_PERICENTER,MEAN_ANOMALY,EPHEMERIS_TYPE,CLASSIFICATION_TYPE,NORAD_CAT_ID,ELEMENT_SET_NO,REV_AT_EPOCH,BSTAR,MEAN_MOTION_DOT,MEAN_MOTION_DDOT
IRIDIUM 135,2017-083A,2026-06-22T10:53:43.186848,14.34217972,.00021689,86.3970,319.8129,91.9616,268.1828,0,U,43070,999,44490,.17566253E-4,.69E-6,0
IRIDIUM 138,2017-083B,2026-06-22T16:31:39.203616,14.34217257,.00021477,86.3979,319.4113,86.4584,273.6858,0,U,43071,999,44492,-.9886938E-5,-.8E-7,0
IRIDIUM 116,2017-083C,2026-06-22T15:45:59.108832,14.34218155,.00020773,86.3969,319.7139,100.9228,259.2202,0,U,43072,999,44495,.23483754E-4,.86E-6,0
IRIDIUM 130,2017-083D,2026-06-22T16:40:46.811136,14.34216912,.00019728,86.3976,319.9737,95.5795,264.5626,0,U,43073,999,44490,.58458644E-4,.183E-5,0
IRIDIUM 151,2017-083E,2026-06-22T16:04:15.121344,14.34218525,.00021657,86.3971,319.7665,93.1732,266.9711,0,U,43074,999,44492,.38228778E-4,.127E-5,0
IRIDIUM 134,2017-083F,2026-06-22T15:18:35.169120,14.34217551,.00021307,86.3973,319.7878,94.0267,266.1173,0,U,43075,999,44488,.46491239E-4,.15E-5,0
IRIDIUM 137,2017-083G,2026-06-22T15:36:51.198912,14.34217828,.00023961,86.3974,319.8755,102.7949,257.3515,0,U,43076,999,44495,.12037794E-4,.53E-6,0
IRIDIUM 141,2017-083H,2026-06-22T15:27:43.170624,14.34217444,.00020922,86.3965,319.7087,90.9926,269.1509,0,U,43077,999,44495,-.4357196E-5,.8E-7,0
IRIDIUM 153,2017-083J,2026-06-22T14:18:51.386976,14.34217916,.00022087,86.3963,288.2090,90.3626,269.7823,0,U,43078,999,44605,.7283267E-5,.4E-6,0
IRIDIUM 131,2017-083K,2026-06-22T16:49:55.125408,14.34217609,.00022595,86.3975,319.8710,92.5639,267.5815,0,U,43079,999,44489,.12520063E-4,.55E-6,0
IRIDIUM 144,2018-030A,2026-06-22T17:48:55.260000,14.34218940,.00021789,86.3962,288.0770,98.0967,262.0476,0,U,43249,999,43093,.58902465E-4,.185E-5,0
IRIDIUM 149,2018-030B,2026-06-22T17:58:03.429120,14.34217752,.00022823,86.3962,288.0414,93.8932,266.2525,0,U,43250,999,43095,.780041E-6,.22E-6,0
IRIDIUM 157,2018-030C,2026-06-22T13:24:03.400416,14.34218149,.0002221,86.3963,288.1742,94.4564,265.6886,0,U,43251,999,43090,.18868297E-4,.73E-6,0
IRIDIUM 140,2018-030D,2026-06-22T13:51:27.203616,14.34219282,.00021495,86.3962,288.1787,94.6558,265.4883,0,U,43252,999,43096,.54022076E-4,.171E-5,0
IRIDIUM 145,2018-030E,2026-06-22T08:31:47.366112,14.34218138,.00021251,86.3963,288.2439,102.7933,257.3500,0,U,43253,999,43086,.18346532E-4,.71E-6,0
IRIDIUM 146,2018-030F,2026-06-22T14:46:15.383712,14.34217304,.00021876,86.3962,288.1473,98.1046,262.0398,0,U,43254,999,43091,.2113912E-4,.79E-6,0
IRIDIUM 148,2018-030G,2026-06-22T14:00:35.450496,14.34217903,.00023015,86.3964,288.2039,95.9114,264.2344,0,U,43255,999,43094,.9730366E-5,.47E-6,0
IRIDIUM 142,2018-030H,2026-06-22T18:16:19.392384,14.34218345,.00021953,86.3961,288.0183,99.8737,260.2706,0,U,43256,999,43093,.28590961E-4,.1E-5,0
IRIDIUM 150,2018-030J,2026-06-22T14:09:43.344864,14.34218169,.00021661,86.3963,288.2063,94.7335,265.4108,0,U,43257,999,43093,.1557714E-4,.63E-6,0
IRIDIUM 143,2018-030K,2026-06-22T08:40:55.373664,14.34218233,.00021485,86.3966,288.3945,97.1745,262.9695,0,U,43258,999,43083,.23447612E-4,.85E-6,0
IRIDIUM 161,2018-047C,2026-06-22T12:10:45.398496,14.43280929,.00025455,86.4482,86.2470,82.4588,277.6902,0,U,43478,999,42590,.63013544E-4,.232E-5,0
IRIDIUM 152,2018-047D,2026-06-22T18:04:26.147424,14.34219093,.00023072,86.3956,86.0054,82.5668,277.5790,0,U,43479,999,42328,.56480684E-4,.178E-5,0
IRIDIUM 147,2018-047E,2026-06-22T11:31:42.245184,14.34217978,.00021417,86.3959,86.1247,86.5157,273.6283,0,U,43480,999,42324,.10315103E-4,.49E-6,0
IRIDIUM 110,2018-047F,2026-06-22T06:39:26.280000,14.34218086,.00025216,86.3961,86.3017,80.0843,280.0638,0,U,43481,999,42320,.14336657E-4,.6E-6,0
IRIDIUM 162,2018-047G,2026-06-22T12:01:40.656000,14.43284147,.00022416,86.4481,86.1407,82.6341,277.5115,0,U,43482,999,42589,.6159214E-4,.227E-5,0
IRIDIUM 160,2018-061A,2026-06-22T10:22:50.503008,14.34217551,.00021628,86.3955,54.6041,85.2527,274.8915,0,U,43569,999,41412,.162197E-6,.2E-6,0
IRIDIUM 166,2018-061B,2026-06-22T14:20:18.441024,14.34217846,.00021344,86.3958,54.4858,87.4075,272.7365,0,U,43570,999,41417,.103052E-5,.23E-6,0
IRIDIUM 158,2018-061C,2026-06-22T05:12:18.417312,14.34218111,.00021723,86.3957,54.6547,83.0123,277.1320,0,U,43571,999,41408,.1995325E-4,.76E-6,0
IRIDIUM 165,2018-061D,2026-06-22T00:47:26.409120,14.34218031,.00020706,86.3959,54.7780,88.0976,272.0457,0,U,43572,999,41408,.18777465E-4,.72E-6,0
IRIDIUM 155,2018-061E,2026-06-22T09:55:26.463936,14.34217429,.0001974,86.3951,54.4875,83.5287,276.6133,0,U,43573,999,41410,-.8686463E-5,-.5E-7,0
