IRIDIUM 135             
1 43070U 17083A   26173.45397207  .00000069  00000+0  17566-4 0  9992
2 43070  86.3970 319.8129 0002168  91.9616 268.1828 14.34217972444907
IRIDIUM 138             
1 43071U 17083B   26173.68864819 -.00000008  00000+0 -98869-5 0  9997
2 43071  86.3979 319.4113 0002147  86.4584 273.6858 14.34217257444928
IRIDIUM 116             
1 43072U 17083C   26173.65693413  .00000086  00000+0  23484-4 0  9999
2 43072  86.3969 319.7139 0002077 100.9228 259.2202 14.34218155444952
IRIDIUM 130             
1 43073U 17083D   26173.69498624  .00000183  00000+0  58459-4 0  9999
2 43073  86.3976 319.9737 0001972  95.5795 264.5626 14.34216912444901
IRIDIUM 151             
1 43074U 17083E   26173.66961946  .00000127  00000+0  38229-4 0  9990
2 43074  86.3971 319.7665 0002165  93.1732 266.9711 14.34218525444920
IRIDIUM 134             
1 43075U 17083F   26173.63790705  .00000150  00000+0  46491-4 0  9997
2 43075  86.3973 319.7878 0002130  94.0267 266.1173 14.34217551444881
IRIDIUM 137             
1 43076U 17083G   26173.65059258  .00000053  00000+0  12038-4 0  9993
2 43076  86.3974 319.8755 0002396 102.7949 257.3515 14.34217828444953
IRIDIUM 141             
1 43077U 17083H   26173.64424966  .00000008  00000+0 -43572-5 0  9994
2 43077  86.3965 319.7087 0002092  90.9926 269.1509 14.34217444444955
IRIDIUM 153             
1 43078U 17083J   26173.59642809  .00000040  00000+0  72833-5 0  9994
2 43078  86.3963 288.2090 0002208  90.3626 269.7823 14.34217916446050
IRIDIUM 131             
1 43079U 17083K   26173.70133247  .00000055  00000+0  12520-4 0  9991
2 43079  86.3975 319.8710 0002259  92.5639 267.5815 14.34217609444894
IRIDIUM 144             
1 43249U 18030A   26173.74230625  .00000185  00000+0  58902-4 0  9993
2 43249  86.3962 288.0770 0002178  98.0967 262.0476 14.34218940430939
IRIDIUM 149             
1 43250U 18030B   26173.74865080  .00000022  00000+0  78004-6 0  9991
2 43250  86.3962 288.0414 0002282  93.8932 266.2525 14.34217752430950
IRIDIUM 157             
1 43251U 18030C   26173.55837269  .00000073  00000+0  18868-4 0  9995
2 43251  86.3963 288.1742 0002221  94.4564 265.6886 14.34218149430907
IRIDIUM 140             
1 43252U 18030D   26173.57739819  .00000171  00000+0  54022-4 0  9991
2 43252  86.3962 288.1787 0002149  94.6558 265.4883 14.34219282430960
IRIDIUM 145             
1 43253U 18030E   26173.35540933  .00000071  00000+0  18347-4 0  9994
2 43253  86.3963 288.2439 0002125 102.7933 257.3500 14.34218138430863
IRIDIUM 146             
1 43254U 18030F   26173.61545583  .00000079  00000+0  21139-4 0  9991
2 43254  86.3962 288.1473 0002187  98.1046 262.0398 14.34217304430919
IRIDIUM 148             
1 43255U 18030G   26173.58374364  .00000047  00000+0  97304-5 0  9998
2 43255  86.3964 288.2039 0002301  95.9114 264.2344 14.34217903430943
IRIDIUM 142             
1 43256U 18030H   26173.76133556  .00000100  00000+0  28591-4 0  9996
2 43256  86.3961 288.0183 0002195  99.8737 260.2706 14.34218345430932
IRIDIUM 150             
1 43257U 18030J   26173.59008501  .00000063  00000+0  15577-4 0  9997
2 43257  86.3963 288.2063 0002166  94.7335 265.4108 14.34218169430937
IRIDIUM 143             
1 43258U 18030K   26173.36175201  .00000085  00000+0  23448-4 0  9995
2 43258  86.3966 288.3945 0002148  97.1745 262.9695 14.34218233430837
IRIDIUM 161             
1 43478U 18047C   26173.50746989  .00000232  00000+0  63014-4 0  9997
2 43478  86.4482  86.2470 0002545  82.4588 277.6902 14.43280929425903
IRIDIUM 152             
1 43479U 18047D   26173.75308041  .00000178  00000+0  56481-4 0  9997
2 43479  86.3956  86.0054 0002307  82.5668 277.5790 14.34219093423288
IRIDIUM 147             
1 43480U 18047E   26173.48035006  .00000049  00000+0  10315-4 0  9990
2 43480  86.3959  86.1247 0002141  86.5157 273.6283 14.34217978423241
IRIDIUM 110             
1 43481U 18047F   26173.27738750  .00000060  00000+0  14337-4 0  9995
2 43481  86.3961  86.3017 0002521  80.0843 280.0638 14.34218086423208
IRIDIUM 162             
1 43482U 18047G   26173.50116500  .00000227  00000+0  61592-4 0  9995
2 43482  86.4481  86.1407 0002241  82.6341 277.5115 14.43284147425897
IRIDIUM 160             
1 43569U 18061A   26173.43252897  .00000020  00000+0  16220-6 0  9990
2 43569  86.3955  54.6041 0002162  85.2527 274.8915 14.34217551414126
IRIDIUM 166             
1 43570U 18061B   26173.59743566  .00000023  00000+0  10305-5 0  9997
2 43570  86.3958  54.4858 0002134  87.4075 272.7365 14.34217846414174
IRIDIUM 158             
1 43571U 18061C   26173.21687983  .00000076  00000+0  19953-4 0  9992
2 43571  86.3957  54.6547 0002172  83.0123 277.1320 14.34218111414085
IRIDIUM 165             
1 43572U 18061D   26173.03294455  .00000072  00000+0  18777-4 0  9990
2 43572  86.3959  54.7780 0002070  88.0976 272.0457 14.34218031414082
IRIDIUM 155             
1 43573U 18061E   26173.41350074 -.00000005  00000+0 -86865-5 0  9995
2 43573  86.3951  54.4875 0001974  83.5287 276.6133 14.34217429414108
